ARIANE 5 R/B            
1 28499U 04049H   26007.45872059  .00001622  00000+0  18518-3 0  9990
2 28499  98.2539 173.6660 0084188 188.7580 171.2170 14.85100198136708
CZ-2D R/B               
1 28738U 05024B   26007.47873721  .00028245  00000+0  42182-3 0  9993
2 28738  97.3625  20.6301 0003267 227.5309 132.5669 15.55004230130258
ALOS (DAICHI)           
1 28931U 06002A   26005.59500709  .00002125  00000+0  36611-3 0  9998
2 28931  98.1128 321.9191 0002014 101.4176 258.7256 14.69578072 64214
H-2A R/B                
1 28932U 06002B   26007.34848957  .00008486  00000+0  43959-3 0  9993
2 28932  98.2331 149.2016 0054642  90.1183 270.6308 15.15170283 85145
RESURS-DK 1             
1 29228U 06021A   26007.49497447  .00002808  00000+0  16772-3 0  9998
2 29228  69.9340  35.2682 0006642 237.6203 122.4321 15.12339504 78275
CZ-4B R/B               
1 29507U 06046C   26007.37889456  .00004475  00000+0  23180-3 0  9990
2 29507  97.5696  52.4475 0035164 118.7685 241.7087 15.16183617 50754
CZ-2C R/B               
1 31114U 07010B   26007.29288920  .00000173  00000+0  98019-4 0  9994
2 31114  98.3971 123.6580 0060035 112.4402 248.3149 14.20222210971006
COSMO-SKYMED 1          
1 31598U 07023A   26007.54158519  .00004270  00000+0  38590-3 0  9991
2 31598  97.8843 198.1139 0001608  85.2980 274.8424 14.96003374  5762
COSMOS 2428             
1 31792U 07029A   26007.29628215  .00000325  00000+0  20022-3 0  9998
2 31792  70.9386 332.2211 0005169 348.3852  11.7149 14.12904113955429
SL-16 R/B               
1 31793U 07029B   26007.27587625 -.00000022  00000+0  13394-4 0  9996
2 31793  70.9774 301.4789 0002166 272.7840 198.7309 14.14825820956682
KORONAS-FOTON           
1 33504U 09003A   26007.39610258  .00010063  00000+0  23650-3 0  9994
2 33504  82.4324 339.5088 0012165  28.7573 331.4341 15.41765746936297
CZ-2C R/B               
1 37731U 11030B   26007.48146881  .00001427  00000+0  18681-3 0  9991
2 37731  97.8448 326.0245 0052444 188.0034 286.7830 14.80992744781039
H-2A R/B                
1 38341U 12025E   26007.48295533  .00002588  00000+0  24036-3 0  9993
2 38341  98.4635 329.7056 0045514 151.4607 208.9117 14.94635766739076
SHIJIAN-16 (SJ-16)      
1 39358U 13057A   26007.55175104  .00003080  00000+0  30488-3 0  9993
2 39358  74.9741 300.8113 0017859 260.2405  99.6766 14.92111628662380
SL-4 R/B                
1 39679U 14021B   26007.16827638  .00011259  00000+0  26543-3 0  9998
2 39679  51.6076 276.9581 0099745 238.3088 120.8140 15.37359571646801
ALOS-2                  
1 39766U 14029A   26007.51116378  .00001212  00000+0  16912-3 0  9991
2 39766  97.9215 106.9893 0001418  95.0958 265.0416 14.79482632627827
YAOGAN-29               
1 41038U 15069A   26007.52818882  .00000481  00000+0  65947-4 0  9991
2 41038  98.0194  35.7800 0001807 137.6821 222.4531 14.82917870546816
ASTRO-H (HITOMI)        
1 41337U 16012A   26007.21530115  .00003149  00000+0  18558-3 0  9997
2 41337  31.0009  33.1139 0009543  75.0453 285.1241 15.09552948542932
HXMT (HUIYAN)           
1 42758U 17034A   26007.41374615  .00006017  00000+0  31003-3 0  9990
2 42758  43.0154 357.1232 0032854 209.2557 150.6452 15.16613468473233
CZ-2C R/B               
1 43521U 18054D   26007.37129372  .00138202  00000+0  68014-3 0  9999
2 43521  35.1338   6.3080 0010880  44.1956 315.9647 15.80673569419103
SAOCOM 1A               
1 43641U 18076A   26007.52842914  .00001334  00000+0  17411-3 0  9997
2 43641  97.8843 196.5754 0001338  84.2099 275.9267 14.82167545392301
H-2A R/B                
1 43682U 18084L   26007.52312116  .00018981  00000+0  49566-3 0  9999
2 43682  98.8761 211.9697 0025865 235.5041 124.3756 15.38531190396366
SAOCOM 1B               
1 46265U 20059A   26007.49213083  .00000883  00000+0  11737-3 0  9994
2 46265  97.8842 195.6390 0001483  85.4694 274.6689 14.82175362289682
CSS (TIANHE)            
1 48274U 21035A   26007.39101961  .00013286  00000+0  16152-3 0  9998
2 48274  41.4649 220.8523 0011067 237.7599 122.2167 15.60258564268036
COSMOS 2550             
1 48865U 21056A   26007.67866469 -.00000192  00000+0 -10846-7 0  9991
2 48865  67.1413 225.4766 0008383 269.3865  90.6329 15.33822397254102
CZ-2C R/B               
1 52794U 22058K   26007.15584125  .00029785  00000+0  50589-3 0  9990
2 52794  50.1899 273.7958 0043515 302.6398  57.0375 15.50095764200574
CZ-2C R/B               
1 54039U 22132E   26007.46458454  .00032986  00000+0  45898-3 0  9990
2 54039  97.2949   9.1877 0018144 324.4937  35.5109 15.56707763180835
GSLV R/B                
1 54149U 22138AN  26007.47113151  .00002257  00000+0  19634-3 0  9998
2 54149  87.3825 186.8550 0022502  20.1663 340.0452 14.96295624174772
XRISM                   
1 57800U 23137A   26007.20950397  .00006201  00000+0  35952-3 0  9991
2 57800  31.0033 321.0674 0007769 144.5667 215.5488 15.10690271128485
ACS3                    
1 59588U 24077B   26007.45114558  .00019411  00000+0  16319-1 0  9999
2 59588  97.2484 322.3119 0066081 273.6975  85.6632 13.86899907 85702
SZ-21 MODULE            
1 66515U 25246C   26007.28584796  .00025295  00000+0  26227-3 0  9990
2 66515  41.4744 220.0380 0001525  74.5254 285.5754 15.64076848  8445
